"{\n    \"CCSDS_OMM_VERS\": \"2.0\",\n    \"COMMENT\": \"GENERATED VIA SPACE-TRACK.ORG API\",\n    \"CREATION_DATE\": \"2025-08-31T11:35:43\",\n    \"ORIGINATOR\": \"18 SPCS\",\n    \"OBJECT_NAME\": \"NAVSTAR 52 (USA 168)\",\n    \"OBJECT_ID\": \"2003-010A\",\n    \"CENTER_NAME\": \"EARTH\",\n    \"REF_FRAME\": \"TEME\",\n    \"TIME_SYSTEM\": \"UTC\",\n    \"MEAN_ELEMENT_THEORY\": \"SGP4\",\n    \"EPOCH\": \"2025-08-31T05:52:31.355040\",\n    \"MEAN_MOTION\": \"1.9474327897\",\n    \"ECCENTRICITY\": \"0.00023942599\",\n    \"INCLINATION\": \"54.973744\",\n    \"RA_OF_ASC_NODE\": \"336.14596\",\n    \"ARG_OF_PERICENTER\": \"288.5918\",\n    \"MEAN_ANOMALY\": \"79.712321\",\n    \"EPHEMERIS_TYPE\": \"0\",\n    \"CLASSIFICATION_TYPE\": \"U\",\n    \"NORAD_CAT_ID\": \"27704\",\n    \"ELEMENT_SET_NO\": \"999\",\n    \"REV_AT_EPOCH\": \"16427\",\n    \"BSTAR\": \"0\",\n    \"MEAN_MOTION_DOT\": \"-0.000000979694\",\n    \"MEAN_MOTION_DDOT\": \"0\",\n    \"TLE_LINE0\": \"0 NAVSTAR 52 (USA 168)\",\n    \"TLE_LINE1\": \"1 27704U 03010A   25243.24480735 -.00000098  00000-0  00000-0 0  9991\",\n    \"TLE_LINE2\": \"2 27704  54.9737 336.1460 0002394 288.5918  79.7123  1.94743279164274\",\n    \"SEMIMAJOR_AXIS\": \"27086.955\",\n    \"PERIOD\": \"739.435\",\n    \"APOAPSIS\": \"20715.306\",\n    \"PERIAPSIS\": \"20702.335\",\n    \"OBJECT_TYPE\": \"PAYLOAD\",\n    \"DECAYED\": \"0\"\n}"